[{"OBJECT_NAME":"PRAETORIAN SDA_606","OBJECT_ID":"2025-203E","EPOCH":"2026-03-09T13:52:35.845824","MEAN_MOTION":13.83528814,"ECCENTRICITY":0.0007292,"INCLINATION":81.3028,"RA_OF_ASC_NODE":103.1011,"ARG_OF_PERICENTER":99.5197,"MEAN_ANOMALY":260.6784,"EPHEMERIS_TYPE":0,"CLASSIFICATION_TYPE":"U","NORAD_CAT_ID":65569,"ELEMENT_SET_NO":999,"REV_AT_EPOCH":2491,"BSTAR":0.0002082,"MEAN_MOTION_DOT":2.41e-6,"MEAN_MOTION_DDOT":0},{"OBJECT_NAME":"CZ-6A DEB","OBJECT_ID":"2022-151JZ","EPOCH":"2026-03-09T21:52:18.178464","MEAN_MOTION":13.97262102,"ECCENTRICITY":0.01387097,"INCLINATION":98.8763,"RA_OF_ASC_NODE":42.9396,"ARG_OF_PERICENTER":2.5536,"MEAN_ANOMALY":357.6305,"EPHEMERIS_TYPE":0,"CLASSIFICATION_TYPE":"U","NORAD_CAT_ID":54521,"ELEMENT_SET_NO":999,"REV_AT_EPOCH":16918,"BSTAR":0.00068149076,"MEAN_MOTION_DOT":9.93e-6,"MEAN_MOTION_DDOT":0}]
